{
  "type": "FeatureCollection",
  "features": [
    {
      "type": "Feature",
      "properties": {
        "norad_id": 62876,
        "name": "QZS-6 (QZSS/PRN 200)",
        "group": "gnss",
        "lat": -0.027267519513178563,
        "lon": -106.46710405334449,
        "alt_km": 35780.00759422257,
        "timestamp": "2025-12-19T04:59:48.549625+00:00",
        "meta_object_name": "QZS-6 (QZSS/PRN 200)",
        "meta_object_id": "2025-023A",
        "meta_epoch": "2025-12-18T15:26:14.366112",
        "meta_mean_motion": 1.00273059,
        "meta_eccentricity": 0.00014897,
        "meta_inclination": 0.0457,
        "meta_ra_of_asc_node": 67.1424,
        "meta_arg_of_pericenter": 210.3648,
        "meta_mean_anomaly": 132.0918,
        "meta_ephemeris_type": 0,
        "meta_classification_type": "U",
        "meta_norad_cat_id": 62876,
        "meta_element_set_no": 999,
        "meta_rev_at_epoch": 314,
        "meta_bstar": 0,
        "meta_mean_motion_dot": -2.09e-06,
        "meta_mean_motion_ddot": 0,
        "tle_line1": "1 62876U 25023A   25352.64322183 -.00000209  00000+0  00000+0 0  9997",
        "tle_line2": "2 62876   0.0457  67.1424 0001489 210.3648 132.0918  1.00273059  3146"
      },
      "geometry": {
        "type": "Point",
        "coordinates": [
          -106.46710405334449,
          -0.027267519513178563
        ]
      }
    },
    {
      "type": "Feature",
      "properties": {
        "norad_id": 63130,
        "name": "COSMOS 2584 (704K)",
        "group": "gnss",
        "lat": -19.500429758183092,
        "lon": -91.56047925183938,
        "alt_km": 19113.927987525858,
        "timestamp": "2025-12-19T04:59:48.549637+00:00",
        "meta_object_name": "COSMOS 2584 (704K)",
        "meta_object_id": "2025-042A",
        "meta_epoch": "2025-12-18T11:25:35.911776",
        "meta_mean_motion": 2.13103072,
        "meta_eccentricity": 0.00077091,
        "meta_inclination": 64.979,
        "meta_ra_of_asc_node": 78.9506,
        "meta_arg_of_pericenter": 218.5301,
        "meta_mean_anomaly": 141.4378,
        "meta_ephemeris_type": 0,
        "meta_classification_type": "U",
        "meta_norad_cat_id": 63130,
        "meta_element_set_no": 999,
        "meta_rev_at_epoch": 619,
        "meta_bstar": 0,
        "meta_mean_motion_dot": -3.8e-07,
        "meta_mean_motion_ddot": 0,
        "tle_line1": "1 63130U 25042A   25352.47611009 -.00000038  00000+0  00000+0 0  9991",
        "tle_line2": "2 63130  64.9790  78.9506 0007709 218.5301 141.4378  2.13103072  6191"
      },
      "geometry": {
        "type": "Point",
        "coordinates": [
          -91.56047925183938,
          -19.500429758183092
        ]
      }
    },
    {
      "type": "Feature",
      "properties": {
        "norad_id": 64202,
        "name": "GPS BIII-8  (PRN 21)",
        "group": "gnss",
        "lat": 54.00659521682191,
        "lon": 112.12735262002423,
        "alt_km": 20186.75008535883,
        "timestamp": "2025-12-19T04:59:48.549651+00:00",
        "meta_object_name": "GPS BIII-8  (PRN 21)",
        "meta_object_id": "2025-116A",
        "meta_epoch": "2025-12-18T15:16:52.654656",
        "meta_mean_motion": 2.00558053,
        "meta_eccentricity": 0.00059082,
        "meta_inclination": 55.1097,
        "meta_ra_of_asc_node": 38.4029,
        "meta_arg_of_pericenter": 309.1838,
        "meta_mean_anomaly": 78.7026,
        "meta_ephemeris_type": 0,
        "meta_classification_type": "U",
        "meta_norad_cat_id": 64202,
        "meta_element_set_no": 999,
        "meta_rev_at_epoch": 425,
        "meta_bstar": 0,
        "meta_mean_motion_dot": -7e-07,
        "meta_mean_motion_ddot": 0,
        "tle_line1": "1 64202U 25116A   25352.63672054 -.00000070  00000+0  00000+0 0  9995",
        "tle_line2": "2 64202  55.1097  38.4029 0005908 309.1838  78.7026  2.00558053  4252"
      },
      "geometry": {
        "type": "Point",
        "coordinates": [
          112.12735262002423,
          54.00659521682191
        ]
      }
    },
    {
      "type": "Feature",
      "properties": {
        "norad_id": 65590,
        "name": "COSMOS 2596 (708K)",
        "group": "gnss",
        "lat": -35.475590057510395,
        "lon": -58.42133509281136,
        "alt_km": 19099.718243678177,
        "timestamp": "2025-12-19T04:59:48.549664+00:00",
        "meta_object_name": "COSMOS 2596 (708K)",
        "meta_object_id": "2025-206B",
        "meta_epoch": "2025-12-18T11:34:10.893792",
        "meta_mean_motion": 2.13100518,
        "meta_eccentricity": 0.00140397,
        "meta_inclination": 64.7412,
        "meta_ra_of_asc_node": 321.2751,
        "meta_arg_of_pericenter": 306.7014,
        "meta_mean_anomaly": 176.2676,
        "meta_ephemeris_type": 0,
        "meta_classification_type": "U",
        "meta_norad_cat_id": 65590,
        "meta_element_set_no": 999,
        "meta_rev_at_epoch": 206,
        "meta_bstar": 0,
        "meta_mean_motion_dot": -6.4e-07,
        "meta_mean_motion_ddot": 0,
        "tle_line1": "1 65590U 25206B   25352.48207053 -.00000064  00000+0  00000+0 0  9995",
        "tle_line2": "2 65590  64.7412 321.2751 0014039 306.7014 176.2676  2.13100518  2064"
      },
      "geometry": {
        "type": "Point",
        "coordinates": [
          -58.42133509281136,
          -35.475590057510395
        ]
      }
    },
    {
      "type": "Feature",
      "properties": {
        "norad_id": 67160,
        "name": "GALILEO A",
        "group": "gnss",
        "lat": -43.98382855260091,
        "lon": 63.20261800391932,
        "alt_km": 22938.835261379838,
        "timestamp": "2025-12-19T04:59:48.549675+00:00",
        "meta_object_name": "GALILEO A",
        "meta_object_id": "2025-302A",
        "meta_epoch": "2025-12-18T03:30:19.276416",
        "meta_mean_motion": 1.72903353,
        "meta_eccentricity": 0.00081342,
        "meta_inclination": 54.2386,
        "meta_ra_of_asc_node": 107.2478,
        "meta_arg_of_pericenter": 237.4124,
        "meta_mean_anomaly": 122.4681,
        "meta_ephemeris_type": 0,
        "meta_classification_type": "U",
        "meta_norad_cat_id": 67160,
        "meta_element_set_no": 999,
        "meta_rev_at_epoch": 2,
        "meta_bstar": 0,
        "meta_mean_motion_dot": -7e-08,
        "meta_mean_motion_ddot": 0,
        "tle_line1": "1 67160U 25302A   25352.14605644 -.00000007  00000+0  00000+0 0  9995",
        "tle_line2": "2 67160  54.2386 107.2478 0008134 237.4124 122.4681  1.72903353    27"
      },
      "geometry": {
        "type": "Point",
        "coordinates": [
          63.20261800391932,
          -43.98382855260091
        ]
      }
    },
    {
      "type": "Feature",
      "properties": {
        "norad_id": 67161,
        "name": "GALILEO B",
        "group": "gnss",
        "lat": -43.73165486300286,
        "lon": 63.64152884662984,
        "alt_km": 22932.537887298724,
        "timestamp": "2025-12-19T04:59:48.549687+00:00",
        "meta_object_name": "GALILEO B",
        "meta_object_id": "2025-302B",
        "meta_epoch": "2025-12-18T17:22:24.246336",
        "meta_mean_motion": 1.72971576,
        "meta_eccentricity": 0.00048165,
        "meta_inclination": 54.2288,
        "meta_ra_of_asc_node": 107.2066,
        "meta_arg_of_pericenter": 251.7259,
        "meta_mean_anomaly": 108.1814,
        "meta_ephemeris_type": 0,
        "meta_classification_type": "U",
        "meta_norad_cat_id": 67161,
        "meta_element_set_no": 999,
        "meta_rev_at_epoch": 4,
        "meta_bstar": 0,
        "meta_mean_motion_dot": -6e-08,
        "meta_mean_motion_ddot": 0,
        "tle_line1": "1 67161U 25302B   25352.72389174 -.00000006  00000+0  00000+0 0  9996",
        "tle_line2": "2 67161  54.2288 107.2066 0004816 251.7259 108.1814  1.72971576    46"
      },
      "geometry": {
        "type": "Point",
        "coordinates": [
          63.64152884662984,
          -43.73165486300286
        ]
      }
    }
  ]
}